#aV2006  5 19  0  0   .00000000      96 DD+AD WGS84 FIT  NGA
## 1375 432000.00000000   900.00000000 53874  .0000000000000
+   29     1  2  3  4  5  6  7  8  9 10 11 13 14 15 16 17 18
+         19 20 21 22 23 24 25 26 27 28 29 30  0  0  0  0  0
+          0  0  0  0  0  0  0  0  0  0  0  0  0  0  0  0  0
+          0  0  0  0  0  0  0  0  0  0  0  0  0  0  0  0  0
+          0  0  0  0  0  0  0  0  0  0  0  0  0  0  0  0  0
++         0  0  0  0  0  0  0  0  0  0  0  0  0  0  0  0  0
++         0  0  0  0  0  0  0  0  0  0  0  0  0  0  0  0  0
++         0  0  0  0  0  0  0  0  0  0  0  0  0  0  0  0  0
++         0  0  0  0  0  0  0  0  0  0  0  0  0  0  0  0  0
++         0  0  0  0  0  0  0  0  0  0  0  0  0  0  0  0  0
%c cc cc ccc ccc cccc cccc cccc cccc ccccc ccccc ccccc ccccc
%c cc cc ccc ccc cccc cccc cccc cccc ccccc ccccc ccccc ccccc
%f  0.0000000  0.000000000  0.00000000000  0.000000000000000
%f  0.0000000  0.000000000  0.00000000000  0.000000000000000
%i    0    0    0    0      0      0      0      0         0
%i    0    0    0    0      0      0      0      0         0
/*      NGA, ST. LOUIS,MO.                                  
/*   EPHEMERIS COMPUTED FROM  3 DAYS OF DATA                
/* CCCCCCCCCCCCCCCCCCCCCCCCCCCCCCCCCCCCCCCCCCCCCCCCCCCCCCCCC
/* CCCCCCCCCCCCCCCCCCCCCCCCCCCCCCCCCCCCCCCCCCCCCCCCCCCCCCCCC
*  2006  5 19  3 15   .00000000                                                 
P  1  14205.891194 -13802.800060 -17478.802791     53.732663                    
V  1  -2749.203460  22403.387792 -19752.186668       .024342                    
P  2 -23043.063203  12327.488962   3815.359878     -1.786379                    
V  2  -6062.042088  -1093.441503 -31161.603636       .027364                    
P  3  11800.282336 -18574.051564  14490.636981     99.691665                    
V  3   2181.056039  19030.106861  22670.512681       .031618                    
P  4 -25512.973836   4945.844371  -6351.540455    233.472810                    
V  4   6444.099670  -5397.829406 -29916.751101       .091799                    
P  5   6345.043221  19366.673601 -17315.274960     13.448573                    
V  5 -19147.601135 -10222.593460 -18494.684007       .527488                    
P  6   8093.457181  21205.738396  13928.803018    530.317436                    
V  6  -4628.899895  17066.501055 -23698.697666       .167060                    
P  7  15975.396958   -240.166593  21564.250965    537.747329                    
V  7  -2017.248041  26605.421323   1686.206225       .022983                    
P  8 -22874.588842  -1648.481918  13595.670822    -66.175021                    
V  8  15748.508255  -7408.056047  24936.631519      -.013109                    
P  9  -5999.947405  17584.811574 -19419.949183     20.787861                    
V  9 -22083.048826   8446.427683  15175.883332       .015488                    
P 10 -12120.199201   9161.751415  21714.734455     83.648295                    
V 10 -21366.528424 -17682.717739  -4143.756397       .005368                    
P 11   3048.253219 -18842.908373 -18447.030244    327.954884                    
V 11  21550.388004  -9962.989217  14038.572560       .024208                    
P 13  -6323.532118 -21078.997541  14823.151931     62.854466                    
V 13   4418.447480 -18423.034576 -24113.827813       .029202                    
P 14  14401.215430   2590.291048 -22101.439289    -13.759922                    
V 14  -4247.469725  27824.701764    443.461242       .007663                    
P 15  22986.696431   2456.767634  13272.014767    614.839695                    
V 15 -15522.235408   7160.282851  24857.391701       .061038                    
P 16  16696.636853  -4742.079980  20223.143934     43.721379                    
V 16  19307.411250  16606.875332 -11994.590898       .024552                    
P 17 -14775.493932  -4032.089423 -21713.381600     93.409648                    
V 17   4000.922828 -27254.023697   2245.780566       .029203                    
P 18  19116.110287  18537.051000   2410.432571   -235.855593                    
V 18  -3926.266209    109.215596  31294.785584      -.015919                    
P 19   7783.331200 -25099.906511   3783.484768    -10.120579                    
V 19   1904.141262   5159.566776  31244.581433       .019280                    
P 20  -7934.484658 -19992.562522 -15698.289061    -26.697948                    
V 20  16892.629448  10436.939460 -21930.993040       .006004                    
P 21  16695.134751   8623.600597  19023.478516     29.632665                    
V 21 -22054.934657   9345.355561  14635.055791       .026631                    
P 22  22385.334396   9842.538832 -10227.344832     97.370024                    
V 22   8233.292655  10676.025269  27871.795174       .042725                    
P 23    713.526423 -26116.892032   4189.161665    141.241881                    
V 23   3401.449125  -5038.959244 -31431.952572      -.007923                    
P 24 -21287.078648  -3970.809517 -15323.288798      6.983254                    
V 24  18059.089534  -8273.527130 -22342.611811       .028050                    
P 25  24210.442874 -10801.251214  -2150.994348     83.884648                    
V 25  -1499.821334   4078.259131 -31363.768166       .924145                    
P 26  -8326.619001  23912.584189   6528.010587   -119.449528                    
V 26   -848.908758  -9186.201983  31318.621666      -.115565                    
P 27 -15773.314889  -8328.826298  20382.082400     49.406037                    
V 27  21724.761978 -11297.438510  12245.980722       .018093                    
P 28 -22645.972092 -12487.968718  -6515.088388     27.130799                    
V 28  -5092.285573  -7331.267237  30064.773388      -.006632                    
P 29 -10093.870710  22013.419228  10807.977189    606.890087                    
V 29   -121.815887 -13563.712350  28389.770221       .062167                    
P 30  15999.365389  19485.557232  -8821.911358    250.382572                    
V 30 -10455.658760  -3994.333840 -28577.499503       .219920                    
EOF
